0 COSMOS 839 DEB
1 10413U 76067G   13284.04180233  .00000050  00000-0  41257-3 0   464
2 10413 065.8748 146.5706 0688265 294.5600 222.4272 12.28938684670127
0 COSMOS 839 DEB
1 10413U 76067G   13286.78989809  .00000052  00000-0  42104-3 0   489
2 10413 065.8744 141.3052 0688211 293.4995 140.4908 12.28938938670460
0 COSMOS 839 DEB
1 10413U 76067G   13288.09218877  .00000030  00000-0  33395-3 0   494
2 10413 065.8744 138.8098 0688180 292.9977 142.0540 12.28939455670623
0 COSMOS 839 DEB
1 10413U 76067G   13290.12820730 -.00000007  00000-0  18975-3 0   502
2 10413 065.8744 134.9082 0688162 292.2138 149.7626 12.28940239670873
0 COSMOS 839 DEB
1 10413U 76067G   13292.01725980  .00000007  00000-0  24646-3 0   515
2 10413 065.8744 131.2882 0688183 291.4866 227.2741 12.28940315671105
0 COSMOS 839 DEB
1 10413U 76067G   13293.53171948  .00000038  00000-0  36703-3 0   524
2 10413 065.8746 128.3859 0688200 290.9035 087.5190 12.28940729671294
0 COSMOS 839 DEB
1 10413U 76067G   13294.94910919  .00000042  00000-0  38212-3 0   532
2 10413 065.8747 125.6698 0688222 290.3582 238.3096 12.28940763671469
0 COSMOS 839 DEB
1 10413U 76067G   13296.06843936  .00000061  00000-0  45858-3 0   547
2 10413 065.8745 123.5247 0688270 289.9260 150.4349 12.28941051671606
